start=new Date('2022-06-02T00:00:00.000Z').valueOf();
sats=[{"RA_OF_ASC_NODE":"145.4451","CENTER_NAME":"EARTH","MEAN_MOTION_DOT":"0.00063128","MEAN_MOTION":"14.96682239","FILE":"3476255","INCLINATION":"69.9992","TIME_SYSTEM":"UTC","RCS_SIZE":"LARGE","DECAY_DATE":null,"SITE":"AFWTR","REV_AT_EPOCH":"130","OBJECT_ID":"2021-082AV","LAUNCH_DATE":"2021-09-14","OBJECT_NAME":"STARLINK-3045","EPOCH":"2022-06-01T20:00:01.000224","REF_FRAME":"TEME","EPHEMERIS_TYPE":"0","TLE_LINE2":"2 49173  69.9992 145.4451 0003219 272.2583 233.9271 14.96682239  1309","ARG_OF_PERICENTER":"272.2583","OBJECT_TYPE":"PAYLOAD","CLASSIFICATION_TYPE":"U","APOAPSIS":"579.397","PERIAPSIS":"574.919","BSTAR":"0.00547830000000","PERIOD":"96.213","SEMIMAJOR_AXIS":"6955.293","GP_ID":"205126235","TLE_LINE1":"1 49173U 21082AV  22152.83334491  .00063128  00000-0  54783-2 0  9993","ECCENTRICITY":"0.00032190","MEAN_MOTION_DDOT":"0.0000000000000","MEAN_ANOMALY":"233.9271","MEAN_ELEMENT_THEORY":"SGP4","ELEMENT_SET_NO":"999","NORAD_CAT_ID":"49173","COUNTRY_CODE":"US"},{"OBJECT_TYPE":"PAYLOAD","TLE_LINE2":"2 49174  69.9993 145.4384 0003272 262.6912 260.8714 14.96684861  1308","ARG_OF_PERICENTER":"262.6912","BSTAR":"0.00548600000000","PERIOD":"96.213","APOAPSIS":"579.426","CLASSIFICATION_TYPE":"U","PERIAPSIS":"574.874","TLE_LINE1":"1 49174U 21082AW  22152.83334491  .00063222  00000-0  54860-2 0  9995","MEAN_MOTION_DDOT":"0.0000000000000","ECCENTRICITY":"0.00032720","SEMIMAJOR_AXIS":"6955.285","GP_ID":"205125985","COUNTRY_CODE":"US","MEAN_ELEMENT_THEORY":"SGP4","MEAN_ANOMALY":"260.8714","NORAD_CAT_ID":"49174","ELEMENT_SET_NO":"999","CENTER_NAME":"EARTH","MEAN_MOTION_DOT":"0.00063222","RA_OF_ASC_NODE":"145.4384","RCS_SIZE":"LARGE","TIME_SYSTEM":"UTC","INCLINATION":"69.9993","FILE":"3476255","MEAN_MOTION":"14.96684861","SITE":"AFWTR","DECAY_DATE":null,"OBJECT_NAME":"STARLINK-3047","REF_FRAME":"TEME","EPHEMERIS_TYPE":"0","EPOCH":"2022-06-01T20:00:01.000224","LAUNCH_DATE":"2021-09-14","REV_AT_EPOCH":"130","OBJECT_ID":"2021-082AW"},{"GP_ID":"205127237","SEMIMAJOR_AXIS":"6955.278","ECCENTRICITY":"0.00031860","TLE_LINE1":"1 49175U 21082AX  22152.83334491  .00068464  00000-0  59354-2 0  9992","MEAN_MOTION_DDOT":"0.0000000000000","ELEMENT_SET_NO":"999","NORAD_CAT_ID":"49175","MEAN_ANOMALY":"95.0124","MEAN_ELEMENT_THEORY":"SGP4","COUNTRY_CODE":"US","ARG_OF_PERICENTER":"270.6801","TLE_LINE2":"2 49175  69.9999 145.4463 0003186 270.6801  95.0124 14.96687094  1307","OBJECT_TYPE":"PAYLOAD","PERIAPSIS":"574.927","CLASSIFICATION_TYPE":"U","APOAPSIS":"579.359","PERIOD":"96.212","BSTAR":"0.00593540000000","DECAY_DATE":null,"SITE":"AFWTR","REV_AT_EPOCH":"130","OBJECT_ID":"2021-082AX","LAUNCH_DATE":"2021-09-14","EPOCH":"2022-06-01T20:00:01.000224","EPHEMERIS_TYPE":"0","REF_FRAME":"TEME","OBJECT_NAME":"STARLINK-3087","RA_OF_ASC_NODE":"145.4463","MEAN_MOTION_DOT":"0.00068464","CENTER_NAME":"EARTH","FILE":"3476255","MEAN_MOTION":"14.96687094","INCLINATION":"69.9999","TIME_SYSTEM":"UTC","RCS_SIZE":"LARGE"},{"DECAY_DATE":null,"SITE":"AFWTR","LAUNCH_DATE":"2021-09-14","REV_AT_EPOCH":"130","OBJECT_ID":"2021-082AY","EPHEMERIS_TYPE":"0","REF_FRAME":"TEME","EPOCH":"2022-06-01T20:00:01.000224","OBJECT_NAME":"STARLINK-3069","RA_OF_ASC_NODE":"125.2084","CENTER_NAME":"EARTH","MEAN_MOTION_DOT":"0.00057635","FILE":"3476255","MEAN_MOTION":"14.96692097","TIME_SYSTEM":"UTC","RCS_SIZE":"LARGE","INCLINATION":"69.9975","SEMIMAJOR_AXIS":"6955.263","GP_ID":"205126964","TLE_LINE1":"1 49176U 21082AY  22152.83334491  .00057635  00000-0  50050-2 0  9995","ECCENTRICITY":"0.00031570","MEAN_MOTION_DDOT":"0.0000000000000","NORAD_CAT_ID":"49176","ELEMENT_SET_NO":"999","MEAN_ELEMENT_THEORY":"SGP4","MEAN_ANOMALY":"20.3699","COUNTRY_CODE":"US","ARG_OF_PERICENTER":"276.3533","TLE_LINE2":"2 49176  69.9975 125.2084 0003157 276.3533  20.3699 14.96692097  1307","OBJECT_TYPE":"PAYLOAD","PERIAPSIS":"574.932","CLASSIFICATION_TYPE":"U","APOAPSIS":"579.323","PERIOD":"96.212","BSTAR":"0.00500500000000"},{"ECCENTRICITY":"0.00031570","TLE_LINE1":"1 49177U 21082AZ  22152.83334491  .00055593  00000-0  48296-2 0  9996","MEAN_MOTION_DDOT":"0.0000000000000","SEMIMAJOR_AXIS":"6955.268","GP_ID":"205125736","COUNTRY_CODE":"US","NORAD_CAT_ID":"49177","ELEMENT_SET_NO":"999","MEAN_ELEMENT_THEORY":"SGP4","MEAN_ANOMALY":"285.1636","OBJECT_TYPE":"PAYLOAD","ARG_OF_PERICENTER":"266.2575","TLE_LINE2":"2 49177  69.9963 125.2137 0003157 266.2575 285.1636 14.96690496  1301","PERIOD":"96.212","BSTAR":"0.00482960000000","PERIAPSIS":"574.937","CLASSIFICATION_TYPE":"U","APOAPSIS":"579.328","SITE":"AFWTR","DECAY_DATE":null,"REF_FRAME":"TEME","EPHEMERIS_TYPE":"0","EPOCH":"2022-06-01T20:00:01.000224","OBJECT_NAME":"STARLINK-3103","LAUNCH_DATE":"2021-09-14","REV_AT_EPOCH":"130","OBJECT_ID":"2021-082AZ","CENTER_NAME":"EARTH","MEAN_MOTION_DOT":"0.00055593","RA_OF_ASC_NODE":"125.2137","RCS_SIZE":"LARGE","TIME_SYSTEM":"UTC","INCLINATION":"69.9963","MEAN_MOTION":"14.96690496","FILE":"3476255"},{"SEMIMAJOR_AXIS":"6950.218","GP_ID":"205126485","TLE_LINE1":"1 49178U 21082BA  22152.83334491  .00012808  00000-0  10795-2 0  9992","MEAN_MOTION_DDOT":"0.0000000000000","ECCENTRICITY":"0.00032570","MEAN_ANOMALY":"111.4624","MEAN_ELEMENT_THEORY":"SGP4","ELEMENT_SET_NO":"999","NORAD_CAT_ID":"49178","COUNTRY_CODE":"US","TLE_LINE2":"2 49178  70.0002 166.0017 0003257 273.9572 111.4624 14.98321876  1305","ARG_OF_PERICENTER":"273.9572","OBJECT_TYPE":"PAYLOAD","APOAPSIS":"574.347","CLASSIFICATION_TYPE":"U","PERIAPSIS":"569.819","BSTAR":"0.00107950000000","PERIOD":"96.108","DECAY_DATE":null,"SITE":"AFWTR","REV_AT_EPOCH":"130","OBJECT_ID":"2021-082BA","LAUNCH_DATE":"2021-09-14","OBJECT_NAME":"STARLINK-3086","EPOCH":"2022-06-01T20:00:01.000224","EPHEMERIS_TYPE":"0","REF_FRAME":"TEME","RA_OF_ASC_NODE":"166.0017","CENTER_NAME":"EARTH","MEAN_MOTION_DOT":"0.00012808","MEAN_MOTION":"14.98321876","FILE":"3476255","INCLINATION":"70.0002","RCS_SIZE":"LARGE","TIME_SYSTEM":"UTC"},{"GP_ID":"205126738","SEMIMAJOR_AXIS":"6955.244","TLE_LINE1":"1 49179U 21082BB  22152.83334491  .00054990  00000-0  47767-2 0  9990","ECCENTRICITY":"0.00033060","MEAN_MOTION_DDOT":"0.0000000000000","NORAD_CAT_ID":"49179","ELEMENT_SET_NO":"999","MEAN_ELEMENT_THEORY":"SGP4","MEAN_ANOMALY":"331.3055","COUNTRY_CODE":"US","ARG_OF_PERICENTER":"272.8066","TLE_LINE2":"2 49179  69.9963 125.2104 0003306 272.8066 331.3055 14.96698072  1308","OBJECT_TYPE":"PAYLOAD","PERIAPSIS":"574.810","APOAPSIS":"579.408","CLASSIFICATION_TYPE":"U","PERIOD":"96.212","BSTAR":"0.00477670000000","DECAY_DATE":null,"SITE":"AFWTR","LAUNCH_DATE":"2021-09-14","REV_AT_EPOCH":"130","OBJECT_ID":"2021-082BB","REF_FRAME":"TEME","EPHEMERIS_TYPE":"0","EPOCH":"2022-06-01T20:00:01.000224","OBJECT_NAME":"STARLINK-3043","RA_OF_ASC_NODE":"125.2104","MEAN_MOTION_DOT":"0.00054990","CENTER_NAME":"EARTH","FILE":"3476255","MEAN_MOTION":"14.96698072","TIME_SYSTEM":"UTC","RCS_SIZE":"LARGE","INCLINATION":"69.9963"},{"OBJECT_TYPE":"PAYLOAD","ARG_OF_PERICENTER":"264.3931","TLE_LINE2":"2 49180  69.9989 145.4386 0002907 264.3931 206.3041 14.96693756  1307","PERIOD":"96.212","BSTAR":"0.00553170000000","PERIAPSIS":"575.101","APOAPSIS":"579.144","CLASSIFICATION_TYPE":"U","TLE_LINE1":"1 49180U 21082BC  22152.83334491  .00063768  00000-0  55317-2 0  9995","MEAN_MOTION_DDOT":"0.0000000000000","ECCENTRICITY":"0.00029070","SEMIMAJOR_AXIS":"6955.257","GP_ID":"205127464","COUNTRY_CODE":"US","ELEMENT_SET_NO":"999","NORAD_CAT_ID":"49180","MEAN_ANOMALY":"206.3041","MEAN_ELEMENT_THEORY":"SGP4","MEAN_MOTION_DOT":"0.00063768","CENTER_NAME":"EARTH","RA_OF_ASC_NODE":"145.4386","INCLINATION":"69.9989","RCS_SIZE":"LARGE","TIME_SYSTEM":"UTC","MEAN_MOTION":"14.96693756","FILE":"3476255","SITE":"AFWTR","DECAY_DATE":null,"EPOCH":"2022-06-01T20:00:01.000224","EPHEMERIS_TYPE":"0","REF_FRAME":"TEME","OBJECT_NAME":"STARLINK-3050","REV_AT_EPOCH":"130","OBJECT_ID":"2021-082BC","LAUNCH_DATE":"2021-09-14"},{"SEMIMAJOR_AXIS":"6950.248","GP_ID":"205126236","ECCENTRICITY":"0.00032500","TLE_LINE1":"1 49181U 21082BD  22152.83334491  .00040147  00000-0  33547-2 0  9993","MEAN_MOTION_DDOT":"0.0000000000000","NORAD_CAT_ID":"49181","ELEMENT_SET_NO":"999","MEAN_ELEMENT_THEORY":"SGP4","MEAN_ANOMALY":"213.2847","COUNTRY_CODE":"US","ARG_OF_PERICENTER":"275.0346","TLE_LINE2":"2 49181  69.9992 165.9984 0003250 275.0346 213.2847 14.98312117  1306","OBJECT_TYPE":"PAYLOAD","PERIAPSIS":"569.854","APOAPSIS":"574.372","CLASSIFICATION_TYPE":"U","PERIOD":"96.108","BSTAR":"0.00335470000000","DECAY_DATE":null,"SITE":"AFWTR","LAUNCH_DATE":"2021-09-14","REV_AT_EPOCH":"130","OBJECT_ID":"2021-082BD","REF_FRAME":"TEME","EPHEMERIS_TYPE":"0","EPOCH":"2022-06-01T20:00:01.000224","OBJECT_NAME":"STARLINK-3059","RA_OF_ASC_NODE":"165.9984","CENTER_NAME":"EARTH","MEAN_MOTION_DOT":"0.00040147","FILE":"3476255","MEAN_MOTION":"14.98312117","RCS_SIZE":"LARGE","TIME_SYSTEM":"UTC","INCLINATION":"69.9992"},{"SITE":"AFETR","DECAY_DATE":null,"OBJECT_NAME":"STARLINK-3151","EPOCH":"2022-06-01T20:00:01.000224","REF_FRAME":"TEME","EPHEMERIS_TYPE":"0","REV_AT_EPOCH":"130","OBJECT_ID":"2021-104A","LAUNCH_DATE":"2021-11-13","CENTER_NAME":"EARTH","MEAN_MOTION_DOT":"0.00006943","RA_OF_ASC_NODE":"290.0810","INCLINATION":"53.2157","TIME_SYSTEM":"UTC","RCS_SIZE":"LARGE","MEAN_MOTION":"15.08842931","FILE":"3476255","TLE_LINE1":"1 49408U 21104A   22152.83334491  .00006943  00000-0  45384-3 0  9999","MEAN_MOTION_DDOT":"0.0000000000000","ECCENTRICITY":"0.00021740","GP_ID":"205127489","SEMIMAJOR_AXIS":"6917.871","COUNTRY_CODE":"US","MEAN_ANOMALY":"260.3371","MEAN_ELEMENT_THEORY":"SGP4","ELEMENT_SET_NO":"999","NORAD_CAT_ID":"49408","OBJECT_TYPE":"PAYLOAD","TLE_LINE2":"2 49408  53.2157 290.0810 0002174  32.1152 260.3371 15.08842931  1305","ARG_OF_PERICENTER":"32.1152","BSTAR":"0.00045384000000","PERIOD":"95.437","APOAPSIS":"541.240","CLASSIFICATION_TYPE":"U","PERIAPSIS":"538.232"}];
